CSS (TIANHE)            
1 48274U 21035A   23198.83892607  .00028890  00000+0  35080-3 0  9997
2 48274  41.4754 329.6981 0009302 301.6432  58.3499 15.59901606126620
